STARLINK-35780          
1 66974U 25288R   26003.25002315 -.00078814  00000+0 -18980-2 0  9993
2 66974  43.0005  38.1321 0000650 293.1130 307.1954 15.40717722  5284
STARLINK-35777          
1 66975U 25288S   26003.25002315 -.00136524  00000+0 -33144-2 0  9996
2 66975  43.0002  38.0998 0001076 280.8937 331.8617 15.40748740  5286
STARLINK-35772          
1 66976U 25288T   26003.15601109  .00121137  00000+0  28584-2 0  9996
2 66976  43.0013  40.6328 0001667 269.7518  90.3148 15.40730893  5187
STARLINK-35770          
1 66977U 25288U   26001.58383638  .00106642  00000+0  17973-2 0  9990
2 66977  43.0009  47.6983 0001130 275.3451  84.7280 15.50604727  4967
STARLINK-35787          
1 66978U 25288V   26003.25002315 -.00086919  00000+0 -20954-2 0  9996
2 66978  43.0010  38.2205 0001489 264.8108 298.1713 15.40726168  5283
STARLINK-36107          
1 66979U 25288W   26003.12842378  .00169263  00000+0  28244-2 0  9996
2 66979  43.0006  38.6462 0001283 256.5132 103.5585 15.50625333  5206
STARLINK-36086          
1 66980U 25288X   26003.25002315  .00045444  00000+0  10907-2 0  9992
2 66980  43.0000  38.0378 0000822 287.1193 350.5321 15.40643594  5285
STARLINK-36142          
1 66981U 25288Y   26003.25002315 -.02365253  00000+0 -58491-1 0  9999
2 66981  43.0003  37.9842 0001444 268.4565  31.9167 15.43187715  5288
STARLINK-36113          
1 66982U 25288Z   26003.25622308  .00103161  00000+0  17386-2 0  9993
2 66982  43.0006  37.8837 0002567 288.0761  71.9820 15.50619178  5223
STARLINK-36145          
1 66983U 25288AA  26003.25553881  .00096048  00000+0  16217-2 0  9990
2 66983  43.0009  37.8780 0001381 288.0432  72.0277 15.50601413  5223
STARLINK-35591          
1 66984U 25288AB  26003.12705204  .00163548  00000+0  27309-2 0  9999
2 66984  43.0005  38.6345 0001029 257.7498 102.3247 15.50629007  5201
STARLINK-36103          
1 66985U 25288AC  26003.25519512  .00119073  00000+0  20021-2 0  9997
2 66985  43.0010  37.8746 0000904 299.1497  60.9273 15.50616478  5222
