CCSDS_OMM_VERS = 2.0
CREATION_DATE  = 
ORIGINATOR     = 

OBJECT_NAME    = STARLINK-35780
OBJECT_ID      = 2025-288R
CENTER_NAME    = EARTH
REF_FRAME      = TEME
TIME_SYSTEM    = UTC
MEAN_ELEMENT_THEORY = SGP/SGP4

EPOCH          = 2026-01-03T06:00:02.000160
MEAN_MOTION    = 15.40717722
ECCENTRICITY   = .00006509
INCLINATION    = 43.0005
RA_OF_ASC_NODE = 38.1321
ARG_OF_PERICENTER = 293.1130
MEAN_ANOMALY   = 307.1954

EPHEMERIS_TYPE = 0
CLASSIFICATION_TYPE = U
NORAD_CAT_ID   = 66974
ELEMENT_SET_NO = 999
REV_AT_EPOCH   = 528
BSTAR          = -.18979507E-2
MEAN_MOTION_DOT = -.78814E-3
MEAN_MOTION_DDOT = 0

CCSDS_OMM_VERS = 2.0
CREATION_DATE  = 
ORIGINATOR     = 

OBJECT_NAME    = STARLINK-35777
OBJECT_ID      = 2025-288S
CENTER_NAME    = EARTH
REF_FRAME      = TEME
TIME_SYSTEM    = UTC
MEAN_ELEMENT_THEORY = SGP/SGP4

EPOCH          = 2026-01-03T06:00:02.000160
MEAN_MOTION    = 15.40748740
ECCENTRICITY   = .00010762
INCLINATION    = 43.0002
RA_OF_ASC_NODE = 38.0998
ARG_OF_PERICENTER = 280.8937
MEAN_ANOMALY   = 331.8617

EPHEMERIS_TYPE = 0
CLASSIFICATION_TYPE = U
NORAD_CAT_ID   = 66975
ELEMENT_SET_NO = 999
REV_AT_EPOCH   = 528
BSTAR          = -.33144133E-2
MEAN_MOTION_DOT = -.136524E-2
MEAN_MOTION_DDOT = 0

CCSDS_OMM_VERS = 2.0
CREATION_DATE  = 
ORIGINATOR     = 

OBJECT_NAME    = STARLINK-35772
OBJECT_ID      = 2025-288T
CENTER_NAME    = EARTH
REF_FRAME      = TEME
TIME_SYSTEM    = UTC
MEAN_ELEMENT_THEORY = SGP/SGP4

EPOCH          = 2026-01-03T03:44:39.358176
MEAN_MOTION    = 15.40730893
ECCENTRICITY   = .00016678
INCLINATION    = 43.0013
RA_OF_ASC_NODE = 40.6328
ARG_OF_PERICENTER = 269.7518
MEAN_ANOMALY   = 90.3148

EPHEMERIS_TYPE = 0
CLASSIFICATION_TYPE = U
NORAD_CAT_ID   = 66976
ELEMENT_SET_NO = 999
REV_AT_EPOCH   = 518
BSTAR          = .28583997E-2
MEAN_MOTION_DOT = .121137E-2
MEAN_MOTION_DDOT = 0

CCSDS_OMM_VERS = 2.0
CREATION_DATE  = 
ORIGINATOR     = 

OBJECT_NAME    = STARLINK-35770
OBJECT_ID      = 2025-288U
CENTER_NAME    = EARTH
REF_FRAME      = TEME
TIME_SYSTEM    = UTC
MEAN_ELEMENT_THEORY = SGP/SGP4

EPOCH          = 2026-01-01T14:00:43.463232
MEAN_MOTION    = 15.50604727
ECCENTRICITY   = .000113
INCLINATION    = 43.0009
RA_OF_ASC_NODE = 47.6983
ARG_OF_PERICENTER = 275.3451
MEAN_ANOMALY   = 84.7280

EPHEMERIS_TYPE = 0
CLASSIFICATION_TYPE = U
NORAD_CAT_ID   = 66977
ELEMENT_SET_NO = 999
REV_AT_EPOCH   = 496
BSTAR          = .17973E-2
MEAN_MOTION_DOT = .106642E-2
MEAN_MOTION_DDOT = 0

CCSDS_OMM_VERS = 2.0
CREATION_DATE  = 
ORIGINATOR     = 

OBJECT_NAME    = STARLINK-35787
OBJECT_ID      = 2025-288V
CENTER_NAME    = EARTH
REF_FRAME      = TEME
TIME_SYSTEM    = UTC
MEAN_ELEMENT_THEORY = SGP/SGP4

EPOCH          = 2026-01-03T06:00:02.000160
MEAN_MOTION    = 15.40726168
ECCENTRICITY   = .00014895
INCLINATION    = 43.0010
RA_OF_ASC_NODE = 38.2205
ARG_OF_PERICENTER = 264.8108
MEAN_ANOMALY   = 298.1713

EPHEMERIS_TYPE = 0
CLASSIFICATION_TYPE = U
NORAD_CAT_ID   = 66978
ELEMENT_SET_NO = 999
REV_AT_EPOCH   = 528
BSTAR          = -.20953964E-2
MEAN_MOTION_DOT = -.86919E-3
MEAN_MOTION_DDOT = 0

CCSDS_OMM_VERS = 2.0
CREATION_DATE  = 
ORIGINATOR     = 

OBJECT_NAME    = STARLINK-36107
OBJECT_ID      = 2025-288W
CENTER_NAME    = EARTH
REF_FRAME      = TEME
TIME_SYSTEM    = UTC
MEAN_ELEMENT_THEORY = SGP/SGP4

EPOCH          = 2026-01-03T03:04:55.814592
MEAN_MOTION    = 15.50625333
ECCENTRICITY   = .00012835
INCLINATION    = 43.0006
RA_OF_ASC_NODE = 38.6462
ARG_OF_PERICENTER = 256.5132
MEAN_ANOMALY   = 103.5585

EPHEMERIS_TYPE = 0
CLASSIFICATION_TYPE = U
NORAD_CAT_ID   = 66979
ELEMENT_SET_NO = 999
REV_AT_EPOCH   = 520
BSTAR          = .28244022E-2
MEAN_MOTION_DOT = .169263E-2
MEAN_MOTION_DDOT = 0

CCSDS_OMM_VERS = 2.0
CREATION_DATE  = 
ORIGINATOR     = 

OBJECT_NAME    = STARLINK-36086
OBJECT_ID      = 2025-288X
CENTER_NAME    = EARTH
REF_FRAME      = TEME
TIME_SYSTEM    = UTC
MEAN_ELEMENT_THEORY = SGP/SGP4

EPOCH          = 2026-01-03T06:00:02.000160
MEAN_MOTION    = 15.40643594
ECCENTRICITY   = .00008225
INCLINATION    = 43.0000
RA_OF_ASC_NODE = 38.0378
ARG_OF_PERICENTER = 287.1193
MEAN_ANOMALY   = 350.5321

EPHEMERIS_TYPE = 0
CLASSIFICATION_TYPE = U
NORAD_CAT_ID   = 66980
ELEMENT_SET_NO = 999
REV_AT_EPOCH   = 528
BSTAR          = .10907247E-2
MEAN_MOTION_DOT = .45444E-3
MEAN_MOTION_DDOT = 0

CCSDS_OMM_VERS = 2.0
CREATION_DATE  = 
ORIGINATOR     = 

OBJECT_NAME    = STARLINK-36142
OBJECT_ID      = 2025-288Y
CENTER_NAME    = EARTH
REF_FRAME      = TEME
TIME_SYSTEM    = UTC
MEAN_ELEMENT_THEORY = SGP/SGP4

EPOCH          = 2026-01-03T06:00:02.000160
MEAN_MOTION    = 15.43187715
ECCENTRICITY   = .00014448
INCLINATION    = 43.0003
RA_OF_ASC_NODE = 37.9842
ARG_OF_PERICENTER = 268.4565
MEAN_ANOMALY   = 31.9167

EPHEMERIS_TYPE = 0
CLASSIFICATION_TYPE = U
NORAD_CAT_ID   = 66981
ELEMENT_SET_NO = 999
REV_AT_EPOCH   = 528
BSTAR          = -.58491213E-1
MEAN_MOTION_DOT = -.2365253E-1
MEAN_MOTION_DDOT = 0

CCSDS_OMM_VERS = 2.0
CREATION_DATE  = 
ORIGINATOR     = 

OBJECT_NAME    = STARLINK-36113
OBJECT_ID      = 2025-288Z
CENTER_NAME    = EARTH
REF_FRAME      = TEME
TIME_SYSTEM    = UTC
MEAN_ELEMENT_THEORY = SGP/SGP4

EPOCH          = 2026-01-03T06:08:57.674112
MEAN_MOTION    = 15.50619178
ECCENTRICITY   = .00025672
INCLINATION    = 43.0006
RA_OF_ASC_NODE = 37.8837
ARG_OF_PERICENTER = 288.0761
MEAN_ANOMALY   = 71.9820

EPHEMERIS_TYPE = 0
CLASSIFICATION_TYPE = U
NORAD_CAT_ID   = 66982
ELEMENT_SET_NO = 999
REV_AT_EPOCH   = 522
BSTAR          = .17385945E-2
MEAN_MOTION_DOT = .103161E-2
MEAN_MOTION_DDOT = 0

CCSDS_OMM_VERS = 2.0
CREATION_DATE  = 
ORIGINATOR     = 

OBJECT_NAME    = STARLINK-36145
OBJECT_ID      = 2025-288AA
CENTER_NAME    = EARTH
REF_FRAME      = TEME
TIME_SYSTEM    = UTC
MEAN_ELEMENT_THEORY = SGP/SGP4

EPOCH          = 2026-01-03T06:07:58.553184
MEAN_MOTION    = 15.50601413
ECCENTRICITY   = .00013819
INCLINATION    = 43.0009
RA_OF_ASC_NODE = 37.8780
ARG_OF_PERICENTER = 288.0432
MEAN_ANOMALY   = 72.0277

EPHEMERIS_TYPE = 0
CLASSIFICATION_TYPE = U
NORAD_CAT_ID   = 66983
ELEMENT_SET_NO = 999
REV_AT_EPOCH   = 522
BSTAR          = .1621717E-2
MEAN_MOTION_DOT = .96048E-3
MEAN_MOTION_DDOT = 0

CCSDS_OMM_VERS = 2.0
CREATION_DATE  = 
ORIGINATOR     = 

OBJECT_NAME    = STARLINK-35591
OBJECT_ID      = 2025-288AB
CENTER_NAME    = EARTH
REF_FRAME      = TEME
TIME_SYSTEM    = UTC
MEAN_ELEMENT_THEORY = SGP/SGP4

EPOCH          = 2026-01-03T03:02:57.296256
MEAN_MOTION    = 15.50629007
ECCENTRICITY   = .00010294
INCLINATION    = 43.0005
RA_OF_ASC_NODE = 38.6345
ARG_OF_PERICENTER = 257.7498
MEAN_ANOMALY   = 102.3247

EPHEMERIS_TYPE = 0
CLASSIFICATION_TYPE = U
NORAD_CAT_ID   = 66984
ELEMENT_SET_NO = 999
REV_AT_EPOCH   = 520
BSTAR          = .27308863E-2
MEAN_MOTION_DOT = .163548E-2
MEAN_MOTION_DDOT = 0

CCSDS_OMM_VERS = 2.0
CREATION_DATE  = 
ORIGINATOR     = 

OBJECT_NAME    = STARLINK-36103
OBJECT_ID      = 2025-288AC
CENTER_NAME    = EARTH
REF_FRAME      = TEME
TIME_SYSTEM    = UTC
MEAN_ELEMENT_THEORY = SGP/SGP4

EPOCH          = 2026-01-03T06:07:28.858368
MEAN_MOTION    = 15.50616478
ECCENTRICITY   = .00009045
INCLINATION    = 43.0010
RA_OF_ASC_NODE = 37.8746
ARG_OF_PERICENTER = 299.1497
MEAN_ANOMALY   = 60.9273

EPHEMERIS_TYPE = 0
CLASSIFICATION_TYPE = U
NORAD_CAT_ID   = 66985
ELEMENT_SET_NO = 999
REV_AT_EPOCH   = 522
BSTAR          = .20021066E-2
MEAN_MOTION_DOT = .119073E-2
MEAN_MOTION_DDOT = 0

